[{"OBJECT_NAME":"SHIYAN-3 (SY-3)","OBJECT_ID":"2008-056A","EPOCH":"2026-03-09T16:28:21.411552","MEAN_MOTION":14.30765435,"ECCENTRICITY":0.00146908,"INCLINATION":98.6178,"RA_OF_ASC_NODE":96.1558,"ARG_OF_PERICENTER":69.2006,"MEAN_ANOMALY":291.0749,"EPHEMERIS_TYPE":0,"CLASSIFICATION_TYPE":"U","NORAD_CAT_ID":33433,"ELEMENT_SET_NO":999,"REV_AT_EPOCH":90457,"BSTAR":0.00010019007,"MEAN_MOTION_DOT":2.19e-6,"MEAN_MOTION_DDOT":0},{"OBJECT_NAME":"OPS 4311 (DMSP 5B F1)","OBJECT_ID":"1971-087A","EPOCH":"2026-03-09T21:16:24.937536","MEAN_MOTION":14.28470441,"ECCENTRICITY":0.0050311,"INCLINATION":99.0136,"RA_OF_ASC_NODE":168.0124,"ARG_OF_PERICENTER":195.4169,"MEAN_ANOMALY":164.5481,"EPHEMERIS_TYPE":0,"CLASSIFICATION_TYPE":"U","NORAD_CAT_ID":5557,"ELEMENT_SET_NO":999,"REV_AT_EPOCH":82626,"BSTAR":0.00014638155,"MEAN_MOTION_DOT":3.24e-6,"MEAN_MOTION_DDOT":0}]
